start=new Date('2021-08-30T00:00:00.000Z').valueOf();
sats=[{"EPHEMERIS_TYPE":"0","MEAN_ANOMALY":"281.6879","MEAN_MOTION_DOT":"0.00000219","TLE_LINE1":"1 45100U 20006BJ  21241.80997127  .00000219  00000-0  33593-4 0  9990","GP_ID":"183698826","TLE_LINE2":"2 45100  53.0531 106.6878 0002074  78.4342 281.6879 15.06396755 87896","EPOCH":"2021-08-29T19:26:21.517728","OBJECT_NAME":"STARLINK-1193","REF_FRAME":"TEME","TIME_SYSTEM":"UTC","NORAD_CAT_ID":"45100","PERIAPSIS":"545.787","MEAN_ELEMENT_THEORY":"SGP4","REV_AT_EPOCH":"8789","SEMIMAJOR_AXIS":"6925.359","LAUNCH_DATE":"2020-01-29","ECCENTRICITY":"0.00020740","OBJECT_TYPE":"PAYLOAD","CENTER_NAME":"EARTH","CLASSIFICATION_TYPE":"U","MEAN_MOTION_DDOT":"0.0000000000000","BSTAR":"0.00003359300000","DECAY_DATE":null,"FILE":"3105271","ARG_OF_PERICENTER":"78.4342","APOAPSIS":"548.660","RCS_SIZE":"LARGE","INCLINATION":"53.0531","ELEMENT_SET_NO":"999","RA_OF_ASC_NODE":"106.6878","OBJECT_ID":"2020-006BJ","SITE":"AFETR","MEAN_MOTION":"15.06396755","COUNTRY_CODE":"US","PERIOD":"95.592"},{"RA_OF_ASC_NODE":"106.4001","OBJECT_ID":"2020-006BK","ELEMENT_SET_NO":"999","SITE":"AFETR","PERIOD":"95.592","COUNTRY_CODE":"US","MEAN_MOTION":"15.06400078","MEAN_MOTION_DDOT":"0.0000000000000","FILE":"3105271","BSTAR":"0.00000497460000","DECAY_DATE":null,"ARG_OF_PERICENTER":"72.1089","INCLINATION":"53.0543","RCS_SIZE":"LARGE","APOAPSIS":"548.670","NORAD_CAT_ID":"45101","TIME_SYSTEM":"UTC","PERIAPSIS":"545.757","REF_FRAME":"TEME","SEMIMAJOR_AXIS":"6925.348","LAUNCH_DATE":"2020-01-29","REV_AT_EPOCH":"8790","MEAN_ELEMENT_THEORY":"SGP4","ECCENTRICITY":"0.00021030","CENTER_NAME":"EARTH","CLASSIFICATION_TYPE":"U","OBJECT_TYPE":"PAYLOAD","MEAN_ANOMALY":"288.0130","MEAN_MOTION_DOT":"-0.00000208","EPHEMERIS_TYPE":"0","TLE_LINE1":"1 45101U 20006BK  21241.87263308 -.00000208  00000-0  49746-5 0  9992","EPOCH":"2021-08-29T20:56:35.498112","TLE_LINE2":"2 45101  53.0543 106.4001 0002103  72.1089 288.0130 15.06400078 87905","GP_ID":"183697574","OBJECT_NAME":"STARLINK-1194"},{"ECCENTRICITY":"0.00020470","CLASSIFICATION_TYPE":"U","CENTER_NAME":"EARTH","OBJECT_TYPE":"PAYLOAD","PERIAPSIS":"545.786","NORAD_CAT_ID":"45102","TIME_SYSTEM":"UTC","REF_FRAME":"TEME","LAUNCH_DATE":"2020-01-29","SEMIMAJOR_AXIS":"6925.338","REV_AT_EPOCH":"8790","MEAN_ELEMENT_THEORY":"SGP4","TLE_LINE2":"2 45102  53.0554 106.3119 0002047  76.5814 283.5403 15.06403312 87905","EPOCH":"2021-08-29T21:28:25.845312","GP_ID":"183698325","OBJECT_NAME":"STARLINK-1195","MEAN_MOTION_DOT":"-0.00000254","MEAN_ANOMALY":"283.5403","EPHEMERIS_TYPE":"0","TLE_LINE1":"1 45102U 20006BL  21241.89474358 -.00000254  00000-0  18305-5 0  9992","SITE":"AFETR","PERIOD":"95.592","MEAN_MOTION":"15.06403312","COUNTRY_CODE":"US","RA_OF_ASC_NODE":"106.3119","OBJECT_ID":"2020-006BL","ELEMENT_SET_NO":"999","ARG_OF_PERICENTER":"76.5814","INCLINATION":"53.0554","RCS_SIZE":"LARGE","APOAPSIS":"548.621","MEAN_MOTION_DDOT":"0.0000000000000","FILE":"3105271","DECAY_DATE":null,"BSTAR":"0.00000183050000"},{"FILE":"3105271","DECAY_DATE":null,"BSTAR":"-0.00004179600000","MEAN_MOTION_DDOT":"0.0000000000000","INCLINATION":"53.0543","APOAPSIS":"548.755","RCS_SIZE":"LARGE","ARG_OF_PERICENTER":"64.4175","RA_OF_ASC_NODE":"106.2027","OBJECT_ID":"2020-006BM","ELEMENT_SET_NO":"999","PERIOD":"95.592","COUNTRY_CODE":"US","MEAN_MOTION":"15.06400143","SITE":"AFETR","TLE_LINE1":"1 45103U 20006BM  21241.92055489 -.00000904  00000-0 -41796-4 0  9999","MEAN_MOTION_DOT":"-0.00000904","MEAN_ANOMALY":"295.7044","EPHEMERIS_TYPE":"0","OBJECT_NAME":"STARLINK-1196","EPOCH":"2021-08-29T22:05:35.942496","TLE_LINE2":"2 45103  53.0543 106.2027 0002227  64.4175 295.7044 15.06400143 87913","GP_ID":"183698576","LAUNCH_DATE":"2020-01-29","SEMIMAJOR_AXIS":"6925.348","REV_AT_EPOCH":"8791","MEAN_ELEMENT_THEORY":"SGP4","PERIAPSIS":"545.671","NORAD_CAT_ID":"45103","TIME_SYSTEM":"UTC","REF_FRAME":"TEME","CLASSIFICATION_TYPE":"U","CENTER_NAME":"EARTH","OBJECT_TYPE":"PAYLOAD","ECCENTRICITY":"0.00022270"},{"MEAN_MOTION_DOT":"0.00001466","MEAN_ANOMALY":"282.8268","EPHEMERIS_TYPE":"0","TLE_LINE1":"1 45178U 20012A   21241.78049190  .00001466  00000-0  11724-3 0  9993","TLE_LINE2":"2 45178  53.0532 266.8168 0000575  77.2785 282.8268 15.06403406 85643","EPOCH":"2021-08-29T18:43:54.500160","GP_ID":"183697832","OBJECT_NAME":"STARLINK-1138","PERIAPSIS":"546.805","NORAD_CAT_ID":"45178","TIME_SYSTEM":"UTC","REF_FRAME":"TEME","LAUNCH_DATE":"2020-02-17","SEMIMAJOR_AXIS":"6925.338","REV_AT_EPOCH":"8564","MEAN_ELEMENT_THEORY":"SGP4","ECCENTRICITY":"0.00005750","CLASSIFICATION_TYPE":"U","CENTER_NAME":"EARTH","OBJECT_TYPE":"PAYLOAD","MEAN_MOTION_DDOT":"0.0000000000000","FILE":"3105271","DECAY_DATE":null,"BSTAR":"0.00011724000000","ARG_OF_PERICENTER":"77.2785","INCLINATION":"53.0532","RCS_SIZE":"LARGE","APOAPSIS":"547.601","OBJECT_ID":"2020-012A","RA_OF_ASC_NODE":"266.8168","ELEMENT_SET_NO":"999","SITE":"AFETR","PERIOD":"95.592","COUNTRY_CODE":"US","MEAN_MOTION":"15.06403406"},{"EPOCH":"2021-08-29T18:49:12.590400","TLE_LINE2":"2 45179  53.0546 266.8136 0000495  51.5090 308.5944 15.06397364 85708","GP_ID":"183699084","OBJECT_NAME":"STARLINK-1143","EPHEMERIS_TYPE":"0","MEAN_MOTION_DOT":"-0.00000697","MEAN_ANOMALY":"308.5944","TLE_LINE1":"1 45179U 20012B   21241.78417350 -.00000697  00000-0 -27937-4 0  9992","ECCENTRICITY":"0.00004950","OBJECT_TYPE":"PAYLOAD","CENTER_NAME":"EARTH","CLASSIFICATION_TYPE":"U","REF_FRAME":"TEME","NORAD_CAT_ID":"45179","TIME_SYSTEM":"UTC","PERIAPSIS":"546.879","MEAN_ELEMENT_THEORY":"SGP4","REV_AT_EPOCH":"8570","SEMIMAJOR_AXIS":"6925.357","LAUNCH_DATE":"2020-02-17","ARG_OF_PERICENTER":"51.5090","APOAPSIS":"547.564","RCS_SIZE":"LARGE","INCLINATION":"53.0546","MEAN_MOTION_DDOT":"0.0000000000000","BSTAR":"-0.00002793700000","DECAY_DATE":null,"FILE":"3105271","SITE":"AFETR","MEAN_MOTION":"15.06397364","COUNTRY_CODE":"US","PERIOD":"95.592","ELEMENT_SET_NO":"999","RA_OF_ASC_NODE":"266.8136","OBJECT_ID":"2020-012B"},{"ECCENTRICITY":"0.00005040","OBJECT_TYPE":"PAYLOAD","CLASSIFICATION_TYPE":"U","CENTER_NAME":"EARTH","REF_FRAME":"TEME","PERIAPSIS":"546.834","NORAD_CAT_ID":"45180","TIME_SYSTEM":"UTC","REV_AT_EPOCH":"8570","MEAN_ELEMENT_THEORY":"SGP4","LAUNCH_DATE":"2020-02-17","SEMIMAJOR_AXIS":"6925.318","GP_ID":"183698834","TLE_LINE2":"2 45180  53.0525 266.8588 0000504  58.2633 301.8405 15.06409894 85706","EPOCH":"2021-08-29T18:33:17.381376","OBJECT_NAME":"STARLINK-1192","EPHEMERIS_TYPE":"0","MEAN_ANOMALY":"301.8405","MEAN_MOTION_DOT":"0.00001592","TLE_LINE1":"1 45180U 20012C   21241.77311784  .00001592  00000-0  12566-3 0  9991","SITE":"AFETR","COUNTRY_CODE":"US","MEAN_MOTION":"15.06409894","PERIOD":"95.592","ELEMENT_SET_NO":"999","OBJECT_ID":"2020-012C","RA_OF_ASC_NODE":"266.8588","ARG_OF_PERICENTER":"58.2633","RCS_SIZE":"LARGE","APOAPSIS":"547.532","INCLINATION":"53.0525","MEAN_MOTION_DDOT":"0.0000000000000","DECAY_DATE":null,"BSTAR":"0.00012566000000","FILE":"3105271"},{"OBJECT_ID":"2020-012D","RA_OF_ASC_NODE":"266.8652","ELEMENT_SET_NO":"999","PERIOD":"95.591","COUNTRY_CODE":"US","MEAN_MOTION":"15.06414141","SITE":"AFETR","FILE":"3105271","BSTAR":"0.00024645000000","DECAY_DATE":null,"MEAN_MOTION_DDOT":"0.0000000000000","INCLINATION":"53.0524","APOAPSIS":"547.555","RCS_SIZE":"LARGE","ARG_OF_PERICENTER":"74.5272","SEMIMAJOR_AXIS":"6925.305","LAUNCH_DATE":"2020-02-17","MEAN_ELEMENT_THEORY":"SGP4","REV_AT_EPOCH":"8570","NORAD_CAT_ID":"45181","TIME_SYSTEM":"UTC","PERIAPSIS":"546.785","REF_FRAME":"TEME","CENTER_NAME":"EARTH","CLASSIFICATION_TYPE":"U","OBJECT_TYPE":"PAYLOAD","ECCENTRICITY":"0.00005560","TLE_LINE1":"1 45181U 20012D   21241.76942971  .00003393  00000-0  24645-3 0  9991","MEAN_MOTION_DOT":"0.00003393","MEAN_ANOMALY":"285.5779","EPHEMERIS_TYPE":"0","OBJECT_NAME":"STARLINK-1200","TLE_LINE2":"2 45181  53.0524 266.8652 0000556  74.5272 285.5779 15.06414141 85708","EPOCH":"2021-08-29T18:27:58.726944","GP_ID":"183697582"},{"RCS_SIZE":"LARGE","APOAPSIS":"547.574","INCLINATION":"53.0539","ARG_OF_PERICENTER":"50.6259","BSTAR":"0.00016823000000","DECAY_DATE":null,"FILE":"3105271","MEAN_MOTION_DDOT":"0.0000000000000","MEAN_MOTION":"15.06407428","COUNTRY_CODE":"US","PERIOD":"95.592","SITE":"AFETR","ELEMENT_SET_NO":"999","OBJECT_ID":"2020-012E","RA_OF_ASC_NODE":"247.0816","OBJECT_NAME":"STARLINK-1201","TLE_LINE2":"2 45182  53.0539 247.0816 0000554  50.6259 309.4779 15.06407428 85825","GP_ID":"183698333","EPOCH":"2021-08-29T17:21:39.816000","TLE_LINE1":"1 45182U 20012E   21241.72337750  .00002226  00000-0  16823-3 0  9994","EPHEMERIS_TYPE":"0","MEAN_MOTION_DOT":"0.00002226","MEAN_ANOMALY":"309.4779","OBJECT_TYPE":"PAYLOAD","CENTER_NAME":"EARTH","CLASSIFICATION_TYPE":"U","ECCENTRICITY":"0.00005540","REV_AT_EPOCH":"8582","MEAN_ELEMENT_THEORY":"SGP4","SEMIMAJOR_AXIS":"6925.326","LAUNCH_DATE":"2020-02-17","REF_FRAME":"TEME","NORAD_CAT_ID":"45182","TIME_SYSTEM":"UTC","PERIAPSIS":"546.807"},{"OBJECT_NAME":"STARLINK-1202","EPOCH":"2021-08-29T19:21:02.901312","TLE_LINE2":"2 45183  53.0538 266.7027 0000432  52.7641 307.3387 15.06404278 85710","GP_ID":"183698584","TLE_LINE1":"1 45183U 20012F   21241.80628358  .00000201  00000-0  32361-4 0  9998","MEAN_ANOMALY":"307.3387","MEAN_MOTION_DOT":"0.00000201","EPHEMERIS_TYPE":"0","CLASSIFICATION_TYPE":"U","CENTER_NAME":"EARTH","OBJECT_TYPE":"PAYLOAD","ECCENTRICITY":"0.00004320","LAUNCH_DATE":"2020-02-17","SEMIMAJOR_AXIS":"6925.335","MEAN_ELEMENT_THEORY":"SGP4","REV_AT_EPOCH":"8571","PERIAPSIS":"546.901","NORAD_CAT_ID":"45183","TIME_SYSTEM":"UTC","REF_FRAME":"TEME","INCLINATION":"53.0538","APOAPSIS":"547.500","RCS_SIZE":"LARGE","ARG_OF_PERICENTER":"52.7641","FILE":"3105271","DECAY_DATE":null,"BSTAR":"0.00003236100000","MEAN_MOTION_DDOT":"0.0000000000000","PERIOD":"95.592","COUNTRY_CODE":"US","MEAN_MOTION":"15.06404278","SITE":"AFETR","RA_OF_ASC_NODE":"266.7027","OBJECT_ID":"2020-012F","ELEMENT_SET_NO":"999"}];
